NORAD_CAT_ID,OBJECT_NAME,OBJECT_TYPE,EPOCH,MEAN_MOTION,ECCENTRICITY,INCLINATION,RA_OF_ASC_NODE,ARG_OF_PERICENTER,MEAN_ANOMALY,BSTAR,MEAN_MOTION_DOT,MEAN_MOTION_DDOT,TLE_LINE0,TLE_LINE1,TLE_LINE2,SEMIMAJOR_AXIS,PERIOD,APOGEE,PERIGEE,DECAYED
50849.0,STARLINK-3311,PAYLOAD,2024-01-22 08:11:40,15.08840313,0.0001839,53.2181,68.7664,108.2994,251.8198,-1.2674e-05,-4.9e-06,0.0,0 STARLINK-3311,1 50849U 22001AY  24022.34144560 -.00000490  00000-0 -12674-4 0  9997,2 50849  53.2181  68.7664 0001839 108.2994 251.8198 15.08840313114114,6917.879,95.438,541.017,538.472,0.0
50849.0,STARLINK-3311,PAYLOAD,2024-01-23 06:27:04,15.08839037,0.000204,53.218,64.6026,113.5646,246.5561,0.00011108,1.48e-05,0.0,0 STARLINK-3311,1 50849U 22001AY  24023.26880659  .00001480  00000-0  11108-3 0  9993,2 50849  53.2180  64.6026 0002040 113.5646 246.5561 15.08839037113056,6917.883,95.438,541.16,538.337,0.0
50849.0,STARLINK-3311,PAYLOAD,2024-01-23 08:02:27,15.0884113,0.0002009,53.2178,64.3053,110.1278,249.9931,0.00013775,1.905e-05,0.0,0 STARLINK-3311,1 50849U 22001AY  24023.33504577  .00001905  00000-0  13775-3 0  9997,2 50849  53.2178  64.3053 0002009 110.1278 249.9931 15.08841130113065,6917.877,95.437,541.132,538.352,0.0
50849.0,STARLINK-3311,PAYLOAD,2024-01-24 09:28:38,15.08837814,0.0001826,53.2185,59.5548,108.8609,251.2581,7.6756e-05,9.34e-06,0.0,0 STARLINK-3311,1 50849U 22001AY  24024.39489311  .00000934  00000-0  76756-4 0  9992,2 50849  53.2185  59.5548 0001826 108.8609 251.2581 15.08837814114428,6917.887,95.438,541.015,538.489,0.0
50849.0,STARLINK-3311,PAYLOAD,2024-01-25 09:19:26,15.08822913,0.0001835,53.2179,55.096,106.1322,253.9873,0.00046324,7.089e-05,0.0,0 STARLINK-3311,1 50849U 22001AY  24025.38849761  .00007089  00000-0  46324-3 0  9996,2 50849  53.2179  55.0960 0001835 106.1322 253.9873 15.08822913114576,6917.933,95.439,541.067,538.528,0.0
50849.0,STARLINK-3311,PAYLOAD,2024-01-26 09:10:13,15.08818286,0.0001704,53.2178,50.6382,90.7014,269.4173,0.00044939,6.867e-05,0.0,0 STARLINK-3311,1 50849U 22001AY  24026.38210304  .00006867  00000-0  44939-3 0  9995,2 50849  53.2178  50.6382 0001704  90.7014 269.4173 15.08818286113522,6917.947,95.439,540.991,538.633,0.0
50849.0,STARLINK-3311,PAYLOAD,2024-01-27 10:36:24,15.08824712,0.0002006,53.2201,45.8684,66.1788,293.9414,0.00043096,6.574e-05,0.0,0 STARLINK-3311,1 50849U 22001AY  24027.44194454  .00006574  00000-0  43096-3 0  9998,2 50849  53.2201  45.8684 0002006  66.1788 293.9414 15.08824712114882,6917.927,95.439,541.18,538.404,0.0
50849.0,STARLINK-3311,PAYLOAD,2024-01-28 00:54:51,15.08843294,0.0001856,53.2209,43.1958,111.7717,248.3473,3.2567e-05,2.3e-06,0.0,0 STARLINK-3311,1 50849U 22001AY  24028.03809553  .00000230  00000-0  32567-4 0  9992,2 50849  53.2209  43.1958 0001856 111.7717 248.3473 15.08843294114971,6917.87,95.437,541.019,538.451,0.0
50849.0,STARLINK-3311,PAYLOAD,2024-01-28 07:16:23,15.08846554,0.0001827,53.2204,42.0092,108.9866,251.1324,5.9987e-05,6.67e-06,0.0,0 STARLINK-3311,1 50849U 22001AY  24028.30305245  .00000667  00000-0  59987-4 0  9990,2 50849  53.2204  42.0092 0001827 108.9866 251.1324 15.08846554113815,6917.86,95.437,540.989,538.461,0.0
50849.0,STARLINK-3311,PAYLOAD,2024-01-29 07:07:11,15.08845373,0.0001835,53.22,37.5513,101.1088,259.011,-7.9188e-06,-4.14e-06,0.0,0 STARLINK-3311,1 50849U 22001AY  24029.29665582 -.00000414  00000-0 -79188-5 0  9990,2 50849  53.2200  37.5513 0001835 101.1088 259.0110 15.08845373115166,6917.864,95.437,540.998,538.46,0.0
50849.0,STARLINK-3311,PAYLOAD,2024-01-30 06:57:58,15.08838639,0.0001783,53.2194,33.0911,107.3278,252.791,3.5258e-05,2.73e-06,0.0,0 STARLINK-3311,1 50849U 22001AY  24030.29025796  .00000273  00000-0  35258-4 0  9999,2 50849  53.2194  33.0911 0001783 107.3278 252.7910 15.08838639115314,6917.885,95.438,540.983,538.516,0.0
50849.0,STARLINK-3311,PAYLOAD,2024-01-31 06:48:45,15.08843447,0.0001687,53.2198,28.6308,97.1579,262.9606,8.7578e-05,1.106e-05,0.0,0 STARLINK-3311,1 50849U 22001AY  24031.28385475  .00001106  00000-0  87578-4 0  9990,2 50849  53.2198  28.6308 0001687  97.1579 262.9606 15.08843447114262,6917.87,95.437,540.902,538.568,0.0
50849.0,STARLINK-3311,PAYLOAD,2024-01-31 22:42:36,15.08837148,0.0001726,53.2196,25.6594,99.9137,260.2049,5.9238e-05,6.55e-06,0.0,0 STARLINK-3311,1 50849U 22001AY  24031.94625991  .00000655  00000-0  59238-4 0  9993,2 50849  53.2196  25.6594 0001726  99.9137 260.2049 15.08837148114362,6917.889,95.438,540.948,538.56,0.0
50849.0,STARLINK-3311,PAYLOAD,2024-02-01 03:28:46,15.08834804,0.0001502,53.2194,24.7624,93.6144,266.502,1.6481e-05,-2.6e-07,0.0,0 STARLINK-3311,1 50849U 22001AY  24032.14498370 -.00000026  00000-0  16481-4 0  9991,2 50849  53.2194  24.7624 0001502  93.6144 266.5020 15.08834804115595,6917.896,95.438,540.8,538.722,0.0
50849.0,STARLINK-3311,PAYLOAD,2024-02-01 05:04:09,15.08832367,0.0001683,53.2202,24.4659,101.1167,259.0014,-7.4285e-06,-4.06e-06,0.0,0 STARLINK-3311,1 50849U 22001AY  24032.21122599 -.00000406  00000-0 -74285-5 0  9996,2 50849  53.2202  24.4659 0001683 101.1167 259.0014 15.08832367114401,6917.904,95.438,540.933,538.604,0.0
50849.0,STARLINK-3311,PAYLOAD,2024-02-02 08:05:42,15.08861186,0.0002064,53.2188,19.4089,94.7059,265.4169,-0.00011232,-2.077e-05,0.0,0 STARLINK-3311,1 50849U 22001AY  24033.33729230 -.00002077  00000-0 -11232-3 0  9992,2 50849  53.2188  19.4089 0002064  94.7059 265.4169 15.08861186115770,6917.816,95.436,541.108,538.253,0.0
50849.0,STARLINK-3311,PAYLOAD,2024-02-02 22:24:11,15.08837988,0.0001504,53.219,16.7343,78.5517,281.5644,9.0582e-05,1.154e-05,0.0,0 STARLINK-3311,1 50849U 22001AY  24033.93346242  .00001154  00000-0  90582-4 0  9995,2 50849  53.2190  16.7343 0001504  78.5517 281.5644 15.08837988114660,6917.887,95.438,540.792,538.711,0.0
50849.0,STARLINK-3311,PAYLOAD,2024-02-03 03:10:20,15.08837538,0.0001574,53.2196,15.8418,76.9369,283.1799,6.8819e-05,8.07e-06,0.0,0 STARLINK-3311,1 50849U 22001AY  24034.13218408  .00000807  00000-0  68819-4 0  9992,2 50849  53.2196  15.8418 0001574  76.9369 283.1799 15.08837538115899,6917.888,95.438,540.842,538.664,0.0
50849.0,STARLINK-3311,PAYLOAD,2024-02-03 06:21:06,15.08838082,0.0001549,53.2193,15.2471,76.5407,283.5757,8.4673e-05,1.06e-05,0.0,0 STARLINK-3311,1 50849U 22001AY  24034.26466415  .00001060  00000-0  84673-4 0  9997,2 50849  53.2193  15.2471 0001549  76.5407 283.5757 15.08838082114713,6917.886,95.438,540.823,538.68,0.0
50849.0,STARLINK-3311,PAYLOAD,2024-02-03 22:14:58,15.08843025,0.0001469,53.2189,12.273,85.9354,274.1806,3.479e-06,-2.33e-06,0.0,0 STARLINK-3311,1 50849U 22001AY  24034.92706294 -.00000233  00000-0  34790-5 0  9990,2 50849  53.2189  12.2730 0001469  85.9354 274.1806 15.08843025114814,6917.871,95.437,540.752,538.72,0.0
50849.0,STARLINK-3311,PAYLOAD,2024-02-04 04:36:30,15.08848157,0.0001341,53.2188,11.0843,99.2735,260.8409,1.5444e-05,-4.2e-07,0.0,0 STARLINK-3311,1 50849U 22001AY  24035.19201729 -.00000042  00000-0  15444-4 0  9995,2 50849  53.2188  11.0843 0001341  99.2735 260.8409 15.08848157116055,6917.855,95.437,540.648,538.793,0.0
50849.0,STARLINK-3311,PAYLOAD,2024-02-04 07:47:15,15.08855558,0.0001399,53.2186,10.4886,95.8515,264.2636,7.8279e-05,9.59e-06,0.0,0 STARLINK-3311,1 50849U 22001AY  24035.32449063  .00000959  00000-0  78279-4 0  9996,2 50849  53.2186  10.4886 0001399  95.8515 264.2636 15.08855558116079,6917.833,95.437,540.666,538.73,0.0
50849.0,STARLINK-3311,PAYLOAD,2024-02-04 22:05:45,15.08835865,0.0001407,53.22,7.8139,81.3715,278.7437,1.7328e-05,-1.2e-07,0.0,0 STARLINK-3311,1 50849U 22001AY  24035.92066532 -.00000012  00000-0  17328-4 0  9997,2 50849  53.2200   7.8139 0001407  81.3715 278.7437 15.08835865114963,6917.893,95.438,540.731,538.785,0.0
50849.0,STARLINK-3311,PAYLOAD,2024-02-05 04:27:17,15.08840173,0.0001636,53.2195,6.6249,89.4297,270.6882,5.7813e-05,6.32e-06,0.0,0 STARLINK-3311,1 50849U 22001AY  24036.18562168  .00000632  00000-0  57813-4 0  9992,2 50849  53.2195   6.6249 0001636  89.4297 270.6882 15.08840173116205,6917.88,95.438,540.877,538.613,0.0
50849.0,STARLINK-3311,PAYLOAD,2024-02-05 07:38:03,15.08845791,0.000156,53.2191,6.028,94.2699,265.8471,8.9529e-05,1.137e-05,0.0,0 STARLINK-3311,1 50849U 22001AY  24036.31809706  .00001137  00000-0  89529-4 0  9999,2 50849  53.2191   6.0280 0001560  94.2699 265.8471 15.08845791115026,6917.863,95.437,540.807,538.649,0.0
50849.0,STARLINK-3311,PAYLOAD,2024-02-06 02:42:41,15.08845965,0.0001585,53.2194,2.4582,113.8507,246.2652,-1.2993e-05,-4.95e-06,0.0,0 STARLINK-3311,1 50849U 22001AY  24037.11297843 -.00000495  00000-0 -12993-4 0  9990,2 50849  53.2194   2.4582 0001585 113.8507 246.2652 15.08845965115147,6917.862,95.437,540.824,538.631,0.0
50849.0,STARLINK-3311,PAYLOAD,2024-02-06 21:47:19,15.08841899,0.0001591,53.2187,358.8893,103.6289,256.488,3.853e-05,3.25e-06,0.0,0 STARLINK-3311,1 50849U 22001AY  24037.90786051  .00000325  00000-0  38530-4 0  9996,2 50849  53.2187 358.8893 0001591 103.6289 256.4880 15.08841899115264,6917.875,95.437,540.84,538.639,0.0
50849.0,STARLINK-3311,PAYLOAD,2024-02-07 04:08:51,15.08844183,0.0001543,53.2192,357.7003,100.5445,259.5721,4.816e-05,4.79e-06,0.0,0 STARLINK-3311,1 50849U 22001AY  24038.17281831  .00000479  00000-0  48160-4 0  9992,2 50849  53.2192 357.7003 0001543 100.5445 259.5721 15.08844183116503,6917.868,95.437,540.8,538.665,0.0
50849.0,STARLINK-3311,PAYLOAD,2024-02-07 13:41:10,15.08844349,0.0001491,53.22,355.9193,81.3358,278.7803,1.0437e-05,-1.22e-06,0.0,0 STARLINK-3311,1 50849U 22001AY  24038.57026011 -.00000122  00000-0  10437-4 0  9995,2 50849  53.2200 355.9193 0001491  81.3358 278.7803 15.08844349115365,6917.867,95.437,540.764,538.701,0.0
50849.0,STARLINK-3311,PAYLOAD,2024-02-07 21:38:06,15.08839506,0.0002071,53.2222,354.439,119.1951,240.9249,-6.0978e-05,-1.259e-05,0.0,0 STARLINK-3311,1 50849U 22001AY  24038.90146659 -.00001259  00000-0 -60978-4 0  9991,2 50849  53.2222 354.4390 0002071 119.1951 240.9249 15.08839506115416,6917.882,95.438,541.18,538.314,0.0
